{
  "type": "FeatureCollection",
  "features": [
    {
      "type": "Feature",
      "properties": {
        "norad_id": 54259,
        "name": "EUTELSAT 10B",
        "group": "eutelsat",
        "lat": -0.007881093801644864,
        "lon": -101.21559221331778,
        "alt_km": 35784.61760951371,
        "timestamp": "2025-12-16T10:53:45.134503+00:00",
        "meta_object_name": "EUTELSAT 10B",
        "meta_object_id": "2022-157A",
        "meta_epoch": "2025-12-15T21:59:46.757760",
        "meta_mean_motion": 1.00281353,
        "meta_eccentricity": 0.00010885,
        "meta_inclination": 0.06,
        "meta_ra_of_asc_node": 100.1867,
        "meta_arg_of_pericenter": 52.6938,
        "meta_mean_anomaly": 271.8619,
        "meta_ephemeris_type": 0,
        "meta_classification_type": "U",
        "meta_norad_cat_id": 54259,
        "meta_element_set_no": 999,
        "meta_rev_at_epoch": 1118,
        "meta_bstar": 0,
        "meta_mean_motion_dot": 9.2e-07,
        "meta_mean_motion_ddot": 0,
        "tle_line1": "1 54259U 22157A   25349.91651340  .00000092  00000+0  00000+0 0  9993",
        "tle_line2": "2 54259   0.0600 100.1867 0001088  52.6938 271.8619  1.00281353 11184"
      },
      "geometry": {
        "type": "Point",
        "coordinates": [
          -101.21559221331778,
          -0.007881093801644864
        ]
      }
    },
    {
      "type": "Feature",
      "properties": {
        "norad_id": 59346,
        "name": "EUTELSAT 36D",
        "group": "eutelsat",
        "lat": -0.042207004578516547,
        "lon": -75.40409860153012,
        "alt_km": 35786.328299675464,
        "timestamp": "2025-12-16T10:53:45.134515+00:00",
        "meta_object_name": "EUTELSAT 36D",
        "meta_object_id": "2024-059A",
        "meta_epoch": "2025-12-15T22:07:08.552928",
        "meta_mean_motion": 1.00270764,
        "meta_eccentricity": 3.254e-05,
        "meta_inclination": 0.0232,
        "meta_ra_of_asc_node": 356.4092,
        "meta_arg_of_pericenter": 18.9682,
        "meta_mean_anomaly": 77.0586,
        "meta_ephemeris_type": 0,
        "meta_classification_type": "U",
        "meta_norad_cat_id": 59346,
        "meta_element_set_no": 999,
        "meta_rev_at_epoch": 631,
        "meta_bstar": 0,
        "meta_mean_motion_dot": 0,
        "meta_mean_motion_ddot": 0,
        "tle_line1": "1 59346U 24059A   25349.92162677  .00000000  00000+0  00000+0 0  9998",
        "tle_line2": "2 59346   0.0232 356.4092 0000325  18.9682  77.0586  1.00270764  6319"
      },
      "geometry": {
        "type": "Point",
        "coordinates": [
          -75.40409860153012,
          -0.042207004578516547
        ]
      }
    }
  ]
}